satname,norad_id,inclination_deg,eccentricity,mean_motion_rev_per_day,perigee_km,apogee_km,l1,l2
STARLINK-1464,45751,53.056,0.000172,15.06410765,545.9874106830266,548.3697192373729,1 45751U 20038X   25322.83281294  .00001859  00000+0  14366-3 0  9991,2 45751  53.0560 354.2741 0001720  89.4325 270.6861 15.06410765299779
STARLINK-1477,45754,53.0541,0.0003138,15.07685132,541.1036722193412,545.4475507743164,1 45754U 20038AA  25322.50564595  .00027238  00000+0  17776-2 0  9992,2 45754  53.0541 355.6338 0003138  35.5039 324.6159 15.07685132299725
STARLINK-1478,45755,53.0556,0.0001658,15.06418023,546.0081069572407,548.3045342223486,1 45755U 20038AB  25322.53424325  .00006800  00000+0  47474-3 0  9993,2 45755  53.0556 355.6120 0001658  89.4004 270.7175 15.06418023299716
STARLINK-1484,45756,53.0153,0.0003618,15.649606,370.9093868865557,375.7947643816842,1 45756U 20038AC  25322.81009032  .00074426  00000+0  74360-3 0  9992,2 45756  53.0153 252.6030 0003618  84.4491 275.6935 15.64960600301189
STARLINK-1493,45759,53.0551,0.0001867,15.06408529,545.8924602095894,548.4783756004354,1 45759U 20038AF  25322.52319552  .00004458  00000+0  31792-3 0  9994,2 45759  53.0551 355.6622 0001867  92.1379 267.9824 15.06408529299719
STARLINK-1494,45760,53.0548,0.0004637,15.53125435,404.4606888812623,410.7537880880336,1 45760U 20038AG  25322.75819905  .00036476  00000+0  57678-3 0  9994,2 45760  53.0548 333.7857 0004637  61.3875 298.7601 15.53125435300050
STARLINK-1502,45764,53.0543,0.0001434,15.06433251,546.1165699171661,548.1027306564692,1 45764U 20038AL  25322.62271097  .00009619  00000+0  66314-3 0  9994,2 45764  53.0543 355.2170 0001434  93.9476 266.1677 15.06433251299747
STARLINK-1470,45772,53.0487,0.0004702,15.18994981,505.63845507497626,512.1150027856629,1 45772U 20038AU  25322.73099830  .00044913  00000+0  21218-2 0  9997,2 45772  53.0487 325.6698 0004702 341.1226  18.9593 15.18994981300165
STARLINK-1482,45773,53.0543,0.0001459,15.06418433,546.144663912045,548.1654641363275,1 45773U 20038AV  25322.32231514  .00005142  00000+0  36367-3 0  9993,2 45773  53.0543 336.5651 0001459  80.4900 279.6253 15.06418433299972
STARLINK-1496,45780,53.0548,0.0001707,15.06402265,546.0224602343369,548.386771862055,1 45780U 20038BC  25322.75356383  .00002296  00000+0  17299-3 0  9990,2 45780  53.0548 334.6284 0001707  93.3737 266.7447 15.06402265300020
STARLINK-1497,45781,53.0383,0.0006351,15.59824842,383.86629636928046,392.4608513582025,1 45781U 20038BD  25322.91671295  .00204815  00000+0  24463-2 0  9992,2 45781  53.0383 272.6413 0006351  32.1551 288.8502 15.59824842  5978
STARLINK-1510,45784,53.0303,0.0005168,15.7823764,331.96428084757554,338.9034276825432,1 45784U 20038BG  25322.91671295  .00205251  00000+0  11475-2 0  9999,2 45784  53.0303 246.5324 0005168 117.6750 129.3359 15.78237640  5962
STARLINK-1513,45786,53.0561,0.0001403,15.06414053,546.1968674921645,548.1401082120556,1 45786U 20038BJ  25322.25228362  .00001564  00000+0  12382-3 0  9991,2 45786  53.0561 336.8803 0001403  92.6260 267.4889 15.06414053299964
STARLINK-1522,46027,53.0545,0.0001601,15.0640026,546.1020128992905,548.3195092523865,1 46027U 20055A   25322.83005241  .00001745  00000+0  13603-3 0  9990,2 46027  53.0545 264.2841 0001601  85.4280 274.6892 15.06400260292178
STARLINK-1523,46028,53.0544,0.0001601,15.063602,546.2247740580151,548.4423097255294,1 46028U 20055B   25322.84480843  .00010860  00000+0  74766-3 0  9992,2 46028  53.0544 264.2215 0001601  94.4661 265.6511 15.06360200292195
STARLINK-1526,46029,53.0541,0.0001582,15.06421865,546.0489661324436,548.2401252134941,1 46029U 20055C   25322.10759651  .00013401  00000+0  91633-3 0  9994,2 46029  53.0541 267.5276 0001582  93.7844 266.3326 15.06421865292073
STARLINK-1555,46032,53.0547,0.0001593,15.06411063,546.0744490201423,548.280854268155,1 46032U 20055F   25322.82267394 -.00001071  00000+0 -53005-4 0  9999,2 46032  53.0547 264.3174 0001593  85.8417 274.2754 15.06411063292189
STARLINK-1556,46033,53.0547,0.0001759,15.06401003,545.9903156188257,548.4266521600566,1 46033U 20055G   25322.87058900  .00001447  00000+0  11601-3 0  9996,2 46033  53.0547 264.1026 0001759  88.5479 271.5711 15.06401003292160
STARLINK-1557,46034,53.0541,0.0001511,15.06392843,546.1870697178056,548.27991668085,1 46034U 20055H   25322.87428647 -.00001173  00000+0 -59850-4 0  9993,2 46034  53.0541 264.0869 0001511  95.0714 265.0448 15.06392843292166
STARLINK-1558,46035,53.0553,0.0001237,15.06390074,546.3853104859099,548.0986492455295,1 46035U 20055J   25322.88166352  .00003239  00000+0  23629-3 0  9994,2 46035  53.0553 264.0555 0001237  92.1134 267.9997 15.06390074292198
STARLINK-1560,46036,53.0547,0.0002147,15.06403792,545.7130661886395,548.6868058689697,1 46036U 20055K   25322.86690454  .00005257  00000+0  37155-3 0  9999,2 46036  53.0547 264.1221 0002147  64.8549 295.2662 15.06403792292195
STARLINK-1567,46038,53.0546,0.0001505,15.06408962,546.1418300110463,548.2263516593875,1 46038U 20055M   25322.81161288  .00000389  00000+0  44971-4 0  9990,2 46038  53.0546 264.3683 0001505  91.5078 268.6083 15.06408962292174
STARLINK-1569,46039,53.0569,0.0002423,15.06393539,545.5533432898601,548.9093767971381,1 46039U 20055N   25322.88533463 -.00000745  00000+0 -31084-4 0  9995,2 46039  53.0569 264.0367 0002423 111.7156 248.4091 15.06393539292187
STARLINK-1582,46043,53.0538,0.0001732,15.0642337,545.9404752153241,548.3393911449775,1 46043U 20055S   25322.16288474  .00008686  00000+0  60093-3 0  9991,2 46043  53.0538 267.2804 0001732  88.7257 271.3930 15.06423370292078
STARLINK-1591,46045,53.0559,0.0001619,15.06413484,546.0490244877765,548.2914389694097,1 46045U 20055U   25322.85216639  .00001220  00000+0  10073-3 0  9993,2 46045  53.0559 264.1869 0001619  77.4180 282.6990 15.06413484292160
STARLINK-1524,46047,53.0541,0.0001577,15.06403846,546.1076449185693,548.2918961359928,1 46047U 20055W   25322.80516753 -.00003251  00000+0 -19941-3 0  9991,2 46047  53.0541 254.3984 0001577  99.1708 260.9460 15.06403846292311
STARLINK-1527,46048,53.0537,0.0001581,15.06401376,546.1124437594026,548.3022376399322,1 46048U 20055X   25322.80148300  .00001863  00000+0  14396-3 0  9995,2 46048  53.0537 254.4138 0001581  89.2910 270.8260 15.06401376292290
STARLINK-1540,46051,53.0547,0.0001608,15.0645916,545.9166800993207,548.1438138859521,1 46051U 20055AA  25322.76828591  .00012688  00000+0  86776-3 0  9999,2 46051  53.0547 254.5617 0001608  99.5261 260.5910 15.06459160292327
